NORAD_CAT_ID,OBJECT_NAME,OBJECT_TYPE,EPOCH,MEAN_MOTION,ECCENTRICITY,INCLINATION,RA_OF_ASC_NODE,ARG_OF_PERICENTER,MEAN_ANOMALY,BSTAR,MEAN_MOTION_DOT,MEAN_MOTION_DDOT,TLE_LINE0,TLE_LINE1,TLE_LINE2,SEMIMAJOR_AXIS,PERIOD,APOGEE,PERIGEE,DECAYED
54103.0,STARLINK-5200,PAYLOAD,2023-12-31 19:21:21,15.08842294,0.0001372,53.2182,300.2334,92.6254,267.4896,-1.9461e-07,-2.91e-06,0.0,0 STARLINK-5200,1 54103U 22136BE  23365.80650379 -.00000291  00000-0 -19461-6 0  9995,2 54103  53.2182 300.2334 0001372  92.6254 267.4896 15.08842294 66661,6917.873,95.437,540.688,538.789,0.0
54103.0,STARLINK-5200,PAYLOAD,2024-01-01 03:18:16,15.08850716,0.000141,53.218,298.7463,92.9278,267.1875,5.075e-05,5.2e-06,0.0,0 STARLINK-5200,1 54103U 22136BE  24001.13769526  .00000520  00000-0  50750-4 0  9991,2 54103  53.2180 298.7463 0001410  92.9278 267.1875 15.08850716 67185,6917.848,95.437,540.688,538.737,0.0
54103.0,STARLINK-5200,PAYLOAD,2024-01-01 04:53:39,15.08851867,0.0001412,53.2179,298.4491,91.8959,268.2195,6.6714e-05,7.74e-06,0.0,0 STARLINK-5200,1 54103U 22136BE  24001.20393461  .00000774  00000-0  66714-4 0  9998,2 54103  53.2179 298.4491 0001412  91.8959 268.2195 15.08851867 66721,6917.844,95.437,540.686,538.732,0.0
54103.0,STARLINK-5200,PAYLOAD,2024-01-02 03:09:04,15.08847065,0.000153,53.2164,294.2882,83.5284,276.5882,0.00021878,3.196e-05,0.0,0 STARLINK-5200,1 54103U 22136BE  24002.13129787  .00003196  00000-0  21878-3 0  9991,2 54103  53.2164 294.2882 0001530  83.5284 276.5882 15.08847065 67331,6917.859,95.437,540.782,538.665,0.0
54103.0,STARLINK-5200,PAYLOAD,2024-01-02 22:13:41,15.08843872,0.000154,53.2156,290.7199,93.4619,266.655,7.9352e-05,9.75e-06,0.0,0 STARLINK-5200,1 54103U 22136BE  24002.92617837  .00000975  00000-0  79352-4 0  9999,2 54103  53.2156 290.7199 0001540  93.4619 266.6550 15.08843872 66981,6917.869,95.437,540.799,538.668,0.0
54103.0,STARLINK-5200,PAYLOAD,2024-01-03 01:24:27,15.08847706,0.0001521,53.2167,290.1254,88.4961,271.6205,9.017e-05,1.148e-05,0.0,0 STARLINK-5200,1 54103U 22136BE  24003.05865603  .00001148  00000-0  90170-4 0  9994,2 54103  53.2167 290.1254 0001521  88.4961 271.6205 15.08847706 67470,6917.857,95.437,540.774,538.67,0.0
54103.0,STARLINK-5200,PAYLOAD,2024-01-03 04:35:13,15.08849649,0.0001558,53.2173,289.529,87.6287,272.4883,0.00010349,1.36e-05,0.0,0 STARLINK-5200,1 54103U 22136BE  24003.19113379  .00001360  00000-0  10349-3 0  9990,2 54103  53.2173 289.5290 0001558  87.6287 272.4883 15.08849649 67021,6917.851,95.437,540.794,538.638,0.0
54103.0,STARLINK-5200,PAYLOAD,2024-01-03 22:04:28,15.08844861,0.0001527,53.2204,286.2506,96.9016,263.215,-4.7917e-05,-1.051e-05,0.0,0 STARLINK-5200,1 54103U 22136BE  24003.91977924 -.00001051  00000-0 -47917-4 0  9995,2 54103  53.2204 286.2506 0001527  96.9016 263.2150 15.08844861 67137,6917.866,95.437,540.787,538.674,0.0
54103.0,STARLINK-5200,PAYLOAD,2024-01-04 01:15:15,15.0884481,0.0001587,53.219,285.6585,90.2298,269.8876,-2.458e-05,-6.79e-06,0.0,0 STARLINK-5200,1 54103U 22136BE  24004.05225854 -.00000679  00000-0 -24580-4 0  9995,2 54103  53.2190 285.6585 0001587  90.2298 269.8876 15.08844810 67621,6917.866,95.437,540.829,538.633,0.0
54103.0,STARLINK-5200,PAYLOAD,2024-01-04 04:26:01,15.0884264,0.0001542,53.2189,285.0644,91.417,268.6999,-1.7899e-06,-3.16e-06,0.0,0 STARLINK-5200,1 54103U 22136BE  24004.18473864 -.00000316  00000-0 -17899-5 0  9999,2 54103  53.2189 285.0644 0001542  91.4170 268.6999 15.08842640 67174,6917.872,95.437,540.804,538.671,0.0
54103.0,STARLINK-5200,PAYLOAD,2024-01-04 21:55:15,15.08840396,0.0001539,53.2186,281.7936,90.7098,269.407,6.4609e-06,-1.85e-06,0.0,0 STARLINK-5200,1 54103U 22136BE  24004.91337955 -.00000185  00000-0  64609-5 0  9994,2 54103  53.2186 281.7936 0001539  90.7098 269.4070 15.08840396 67282,6917.879,95.438,540.809,538.68,0.0
54103.0,STARLINK-5200,PAYLOAD,2024-01-05 01:06:02,15.08842134,0.000153,53.2183,281.1991,106.8441,253.2719,-4.5615e-06,-3.61e-06,0.0,0 STARLINK-5200,1 54103U 22136BE  24005.04585768 -.00000361  00000-0 -45615-5 0  9999,2 54103  53.2183 281.1991 0001530 106.8441 253.2719 15.08842134 67302,6917.874,95.437,540.797,538.68,0.0
54103.0,STARLINK-5200,PAYLOAD,2024-01-05 18:35:17,15.0882827,0.0001625,53.2174,277.9298,102.6493,257.4681,7.9764e-05,9.81e-06,0.0,0 STARLINK-5200,1 54103U 22136BE  24005.77450595  .00000981  00000-0  79764-4 0  9995,2 54103  53.2174 277.9298 0001625 102.6493 257.4681 15.08828270 67883,6917.916,95.438,540.905,538.657,0.0
54103.0,STARLINK-5200,PAYLOAD,2024-01-05 21:46:03,15.08836213,0.0001595,53.2175,277.337,109.1783,250.9382,-5.7127e-06,-3.79e-06,0.0,0 STARLINK-5200,1 54103U 22136BE  24005.90698460 -.00000379  00000-0 -57127-5 0  9998,2 54103  53.2175 277.3370 0001595 109.1783 250.9382 15.08836213 67432,6917.892,95.438,540.86,538.654,0.0
54103.0,STARLINK-5200,PAYLOAD,2024-01-06 00:56:49,15.08835878,0.0001495,53.2176,276.7406,103.9828,256.1331,2.2252e-05,6.6e-07,0.0,0 STARLINK-5200,1 54103U 22136BE  24006.03946417  .00000066  00000-0  22252-4 0  9992,2 54103  53.2176 276.7406 0001495 103.9828 256.1331 15.08835878 67457,6917.893,95.438,540.792,538.724,0.0
54103.0,STARLINK-5200,PAYLOAD,2024-01-06 18:26:04,15.08839454,0.0001439,53.2172,273.4681,99.7927,260.3228,7.411e-06,-1.7e-06,0.0,0 STARLINK-5200,1 54103U 22136BE  24006.76810569 -.00000170  00000-0  74110-5 0  9998,2 54103  53.2172 273.4681 0001439  99.7927 260.3228 15.08839454 68033,6917.882,95.438,540.743,538.752,0.0
54103.0,STARLINK-5200,PAYLOAD,2024-01-06 21:36:50,15.08842856,0.0001417,53.2173,272.8745,102.8244,257.2906,-2.2786e-05,-6.51e-06,0.0,0 STARLINK-5200,1 54103U 22136BE  24006.90058445 -.00000651  00000-0 -22786-4 0  9997,2 54103  53.2173 272.8745 0001417 102.8244 257.2906 15.08842856 67589,6917.872,95.437,540.717,538.756,0.0
54103.0,STARLINK-5200,PAYLOAD,2024-01-07 02:23:00,15.08827407,0.0001546,53.2174,271.9841,102.2242,257.8923,0.00026981,4.007e-05,0.0,0 STARLINK-5200,1 54103U 22136BE  24007.09930603  .00004007  00000-0  26981-3 0  9990,2 54103  53.2174 271.9841 0001546 102.2242 257.8923 15.08827407 67616,6917.919,95.438,540.853,538.714,0.0
54103.0,STARLINK-5200,PAYLOAD,2024-01-07 21:27:37,15.08835666,0.0001406,53.2178,268.4169,96.7279,263.3874,6.4481e-05,7.38e-06,0.0,0 STARLINK-5200,1 54103U 22136BE  24007.89418926  .00000738  00000-0  64481-4 0  9992,2 54103  53.2178 268.4169 0001406  96.7279 263.3874 15.08835666 67732,6917.894,95.438,540.731,538.786,0.0
54103.0,STARLINK-5200,PAYLOAD,2024-01-08 03:49:09,15.08848972,0.0001612,53.2177,267.2258,97.1524,262.9652,2.4181e-05,9.7e-07,0.0,0 STARLINK-5200,1 54103U 22136BE  24008.15914168  .00000097  00000-0  24181-4 0  9992,2 54103  53.2177 267.2258 0001612  97.1524 262.9652 15.08848972 68244,6917.853,95.437,540.833,538.603,0.0
54103.0,STARLINK-5200,PAYLOAD,2024-01-08 22:53:49,15.08821718,0.0001854,53.2171,263.6512,133.8861,226.2284,-0.00012477,-2.272e-05,0.0,0 STARLINK-5200,1 54103U 22136BE  24008.95404948 -.00002272  00000-0 -12477-3 0  9993,2 54103  53.2171 263.6512 0001854 133.8861 226.2284 15.08821718 67894,6917.936,95.439,541.084,538.519,0.0
54103.0,STARLINK-5200,PAYLOAD,2024-01-09 00:29:13,15.08815678,0.0001402,53.217,263.3635,97.7454,262.3697,-0.00015462,-2.746e-05,0.0,0 STARLINK-5200,1 54103U 22136BE  24009.02029808 -.00002746  00000-0 -15462-3 0  9993,2 54103  53.2170 263.3635 0001402  97.7454 262.3697 15.08815678 68372,6917.955,95.439,540.79,538.85,0.0
54103.0,STARLINK-5200,PAYLOAD,2024-01-10 16:13:50,15.08834212,0.0001334,53.2173,255.9293,77.7961,282.3181,0.00028102,4.187e-05,0.0,0 STARLINK-5200,1 54103U 22136BE  24010.67627929  .00004187  00000-0  28102-3 0  9998,2 54103  53.2173 255.9293 0001334  77.7961 282.3181 15.08834212 68620,6917.898,95.438,540.686,538.84,0.0
54103.0,STARLINK-5200,PAYLOAD,2024-01-10 22:35:22,15.08842502,0.0001604,53.2167,254.7384,91.5411,268.5765,0.00036642,5.549e-05,0.0,0 STARLINK-5200,1 54103U 22136BE  24010.94123468  .00005549  00000-0  36642-3 0  9998,2 54103  53.2167 254.7384 0001604  91.5411 268.5765 15.08842502 68664,6917.873,95.437,540.847,538.628,0.0
54103.0,STARLINK-5200,PAYLOAD,2024-01-11 22:26:09,15.08853775,0.0001442,53.2157,250.278,94.6047,265.511,2.855e-05,1.67e-06,0.0,0 STARLINK-5200,1 54103U 22136BE  24011.93483286  .00000167  00000-0  28550-4 0  9996,2 54103  53.2157 250.2780 0001442  94.6047 265.5110 15.08853775 68343,6917.838,95.437,540.701,538.706,0.0
54103.0,STARLINK-5200,PAYLOAD,2024-01-12 01:36:55,15.08854507,0.0001485,53.2162,249.6813,105.6673,254.4483,3.9707e-05,3.44e-06,0.0,0 STARLINK-5200,1 54103U 22136BE  24012.06731024  .00000344  00000-0  39707-4 0  9990,2 54103  53.2162 249.6813 0001485 105.6673 254.4483 15.08854507 68831,6917.836,95.437,540.728,538.674,0.0
54103.0,STARLINK-5200,PAYLOAD,2024-01-12 19:06:10,15.08848589,0.0001363,53.2166,246.4066,112.9793,247.1343,-0.00011555,-2.127e-05,0.0,0 STARLINK-5200,1 54103U 22136BE  24012.79595506 -.00002127  00000-0 -11555-3 0  9996,2 54103  53.2166 246.4066 0001363 112.9793 247.1343 15.08848589 68948,6917.854,95.437,540.662,538.776,0.0
54103.0,STARLINK-5200,PAYLOAD,2024-01-12 22:16:56,15.08847589,0.0001566,53.2166,245.8119,117.1614,242.9538,-0.00010236,-1.917e-05,0.0,0 STARLINK-5200,1 54103U 22136BE  24012.92843344 -.00001917  00000-0 -10236-3 0  9998,2 54103  53.2166 245.8119 0001566 117.1614 242.9538 15.08847589 68492,6917.857,95.437,540.806,538.639,0.0
54103.0,STARLINK-5200,PAYLOAD,2024-01-13 01:27:42,15.0884622,0.0001271,53.2163,245.2189,101.9275,258.186,-0.00011085,-2.052e-05,0.0,0 STARLINK-5200,1 54103U 22136BE  24013.06091316 -.00002052  00000-0 -11085-3 0  9992,2 54103  53.2163 245.2189 0001271 101.9275 258.1860 15.08846220 68518,6917.861,95.437,540.606,538.847,0.0
54103.0,STARLINK-5200,PAYLOAD,2024-01-13 22:07:43,15.08848345,0.0001396,53.2166,241.3533,102.4862,257.6287,5.7844e-05,6.33e-06,0.0,0 STARLINK-5200,1 54103U 22136BE  24013.92202969  .00000633  00000-0  57844-4 0  9990,2 54103  53.2166 241.3533 0001396 102.4862 257.6287 15.08848345 69111,6917.855,95.437,540.686,538.754,0.0
